QZS-1R                  
1 49336U 21096A   24135.20188132 -.00000243  00000+0  00000+0 0  9991
2 49336  35.8777  91.0405 0754022 270.8835  78.3699  1.00271284  9349
